GALAXY 25 (G-25)        
1 24812U 97026A   23249.54958001 -.00000144  00000+0  00000+0 0  9991
2 24812   4.8088  79.1162 0010113  45.4693 350.3218  0.99033952 96175
INTELSAT 5 (IS-5)       
1 24916U 97046A   23249.73868747 -.00000074  00000+0  00000+0 0  9998
2 24916   8.1815  57.7571 0004691 143.8734 216.0337  1.00273038 95447
GALAXY 11 (G-11)        
1 26038U 99071A   23249.68116681  .00000060  00000+0  00000+0 0  9996
2 26038   4.1366  82.5539 0004795 102.8797 278.2949  1.00037001 86919
INTELSAT 9 (IS-9)       
1 26451U 00043A   23250.09869306 -.00000300  00000+0  00000+0 0  9990
2 26451   8.1682  57.9488 0002760 140.7446 132.7698  1.00272754 84676
INTELSAT 1R (IS-1R)     
1 26608U 00072A   23249.88105625 -.00000152  00000+0  00000+0 0  9993
2 26608   5.5665  75.6035 0002033 187.5670 196.8368  1.00266811 83488
INTELSAT 10 (IS-10)     
1 26766U 01019A   23249.73868747  .00000021  00000+0  00000+0 0  9999
2 26766   6.6378  69.3676 0002552 111.0365 248.8922  1.00273214 35448
INTELSAT 901 (IS-901)   
1 26824U 01024A   23249.70083392 -.00000213  00000+0  00000+0 0  9996
2 26824   0.0425 270.5424 0000700 306.6568 353.1263  1.00272356 12811
INTELSAT 902 (IS-902)   
1 26900U 01039A   23250.05482744 -.00000295  00000+0  00000+0 0  9991
2 26900   3.5304  83.9536 0002663 116.0905 115.4858  1.00272120 80608
INTELSAT 904 (IS-904)   
1 27380U 02007A   23249.44187103 -.00000227  00000+0  00000+0 0  9997
2 27380   4.3545  81.0675 0002569  78.0263 315.7715  1.00263480 78916
DIRECTV 5 (TEMPO 1)     
1 27426U 02023A   23250.04290535 -.00000068  00000+0  00000+0 0  9991
2 27426   2.2636  87.8802 0003296  90.0734  73.2358  1.00267510 78137
INTELSAT 905 (IS-905)   
1 27438U 02027A   23249.70161712 -.00000197  00000+0  00000+0 0  9996
2 27438   4.1791  81.7523 0002442  88.6287  43.2379  1.00272625 41193
GALAXY 3C (G-3C)        
1 27445U 02030A   23250.19407605 -.00000164  00000+0  00000+0 0  9991
2 27445   1.1073  89.7914 0002923 140.6863  90.5553  1.00272273 77788
INTELSAT 906 (IS-906)   
1 27513U 02041A   23250.14924698  .00000001  00000+0  00000+0 0  9999
2 27513   3.2030  85.2718 0002736  86.0837 292.5129  1.00273521 76801
GALAXY 12 (G-12)        
1 27715U 03013B   23250.23479774  .00000083  00000+0  00000+0 0  9993
2 27715   4.3904  80.7740 0001909 107.3632 105.3621  1.00274629 74832
GALAXY 23 (G-23)        
1 27854U 03034A   23249.68238512  .00000001  00000+0  00000+0 0  9990
2 27854   0.5650  93.1835 0002731  72.1796 304.9225  1.00272646 73573
GALAXY 13 (HORIZONS-1)  
1 27954U 03044A   23249.68125382  .00000037  00000+0  00000+0 0  9991
2 27954   0.0098 146.3938 0002147  35.3490 282.0166  1.00273573 36404
INTELSAT 10-02          
1 28358U 04022A   23249.92124775 -.00000023  00000+0  00000+0 0  9995
2 28358   0.0416 271.5437 0000885 284.2994 120.5576  1.00268580 70459
XM-3 (RHYTHM)           
1 28626U 05008A   23250.04786564 -.00000217  00000+0  00000+0 0  9998
2 28626   0.0362 311.8762 0000026 224.4450 101.6744  1.00272010 67890
DIRECTV 8               
1 28659U 05019A   23249.62699139 -.00000010  00000+0  00000+0 0  9990
2 28659   0.0167 131.0710 0002690  50.5560 270.5052  1.00273292 66893
GALAXY 28 (G-28)        
1 28702U 05022A   23249.61711815 -.00000197  00000+0  00000+0 0  9994
2 28702   0.6689  91.0553 0003621 141.7847 245.7865  1.00271568 41818
GALAXY 14 (G-14)        
1 28790U 05030A   23249.71301707  .00000143  00000+0  00000+0 0  9996
2 28790   2.3941  87.2154 0001402  87.9796  99.9382  1.00268938 66130
GALAXY 15 (G-15)        
1 28884U 05041A   23249.70196521 -.00000243  00000+0  00000+0 0  9999
2 28884   0.8852  85.0291 0015790 102.5315  27.8914  0.98942935 65404
SPACEWAY 2              
1 28903U 05046B   23250.03716186  .00000091  00000+0  00000+0 0  9999
2 28903   2.9310  83.5092 0000198 259.2949 237.5100  1.00271875 65329
GALAXY 16 (G-16)        
1 29236U 06023A   23249.90176763 -.00000139  00000+0  00000+0 0  9994
2 29236   0.0489 262.0136 0003000 277.8656  31.4837  1.00273481 63099
DIRECTV 9S              
1 29494U 06043A   23249.61468152 -.00000124  00000+0  00000+0 0  9990
2 29494   0.2116 276.6067 0002987 258.0935 290.8170  1.00271923 41201
XM-4 (BLUES)            
1 29520U 06049A   23249.69874538 -.00000267  00000+0  00000+0 0  9991
2 29520   0.1998 102.8813 0000314 195.4023 259.7905  1.00270140 41313
GALAXY 17 (G-17)        
1 31307U 07016B   23249.61790135 -.00000217  00000+0  00000+0 0  9999
2 31307   0.3853  93.2757 0003263 107.8074 281.7950  1.00271874 59634
DIRECTV 10              
1 31862U 07032A   23250.04429771 -.00000115  00000+0  00000+0 0  9994
2 31862   0.0395 330.1991 0000310 239.0925  49.7084  1.00272199 59231
SPACEWAY 3              
1 32018U 07036A   23250.04586412 -.00000163  00000+0  00000+0 0  9991
2 32018   1.3676  88.5236 0000297 264.9280 273.9618  1.00271852 58959
INTELSAT 11 (IS-11)     
1 32253U 07044B   23249.69796216 -.00000280  00000+0  00000+0 0  9995
2 32253   0.9242  91.2983 0003362  91.0624  11.4237  1.00271315 58328
HORIZONS-2              
1 32388U 07063B   23249.54844872 -.00000264  00000+0  00000+0 0  9993
2 32388   0.0182 126.6130 0002024  46.9169 295.4760  1.00273439 57643
DIRECTV 11              
1 32729U 08013A   23249.61511663 -.00000137  00000+0  00000+0 0  9994
2 32729   0.0415 356.7193 0000674 172.3725 298.6034  1.00272513 35420
GALAXY 18 (G-18)        
1 32951U 08024A   23249.96867508  .00000013  00000+0  00000+0 0  9995
2 32951   0.0141 206.2816 0003465 334.2682  30.9646  1.00274393 55916
INTELSAT 25 (IS-25)     
1 33153U 08034A   23249.70022476 -.00000235  00000+0  00000+0 0  9997
2 33153   0.0809  90.2921 0002959  84.0103  31.7963  1.00270995 55527
GALAXY 19 (G-19)        
1 33376U 08045A   23249.61555175 -.00000150  00000+0  00000+0 0  9999
2 33376   0.0153 122.7864 0002808  52.0342 295.2153  1.00271029 54735
FM-5                    
1 35493U 09034A   23249.61772730 -.00000211  00000+0  00000+0 0  9996
2 35493   0.0142 206.4723 0000410   7.5901 267.6172  1.00271259 36461
INTELSAT 14 (IS-14)     
1 36097U 09064A   23249.69752705 -.00000285  00000+0  00000+0 0  9999
2 36097   0.0186 131.3114 0002307  65.0875 355.2383  1.00272037 50432
INTELSAT 15 (IS-15)     
1 36106U 09067A   23250.08171743 -.00000197  00000+0  00000+0 0  9997
2 36106   0.0117 263.2700 0002429 282.6270 274.5661  1.00271836 50432
DIRECTV 12              
1 36131U 09075A   23250.04438473 -.00000115  00000+0  00000+0 0  9996
2 36131   0.0163 332.4664 0000391 161.2953 125.3538  1.00272367 50217
INTELSAT 16 (IS-16)     
1 36397U 10006A   23249.54801360 -.00000256  00000+0  00000+0 0  9994
2 36397   0.0124 253.3669 0002376 298.8918 274.1941  1.00271342 49487
XM-5                    
1 37185U 10053A   23249.68360344 -.00000034  00000+0  00000+0 0  9993
2 37185   0.0138 121.4565 0000607 137.7833 217.1606  1.00271288 47314
INTELSAT 17 (IS-17)     
1 37238U 10065B   23249.83730003 -.00000013  00000+0  00000+0 0  9992
2 37238   0.0180 203.9313 0002819 334.3199 174.8518  1.00270870 43069
INTELSAT NEW DAWN       
1 37392U 11016A   23250.07127472  .00000144  00000+0  00000+0 0  9992
2 37392   0.0466 265.5681 0001225 288.6811 210.0877  1.00271355 45355
INTELSAT 18 (IS-18)     
1 37834U 11056A   23249.78382638  .00000042  00000+0  00000+0 0  9997
2 37834   0.0212 136.7411 0001984  51.8735 259.1786  1.00273440 43631
INTELSAT 22 (IS-22)     
1 38098U 12011A   23249.83730003 -.00000070  00000+0  00000+0 0  9993
2 38098   0.0284 139.9457 0002820  39.6045 179.6280  1.00271085 41643
INTELSAT 19 (IS-19)     
1 38356U 12030A   23249.75535491 -.00000068  00000+0  00000+0 0  9993
2 38356   0.0180 127.9921 0003156  54.8229 240.6870  1.00270476 40268
INTELSAT 20 (IS-20)     
1 38740U 12043A   23249.83730003 -.00000036  00000+0  00000+0 0  9994
2 38740   0.0185 143.0929 0001860  29.8619 182.6379  1.00270048 40570
INTELSAT 21 (IS-21)     
1 38749U 12045A   23250.05326103 -.00000296  00000+0  00000+0 0  9991
2 38749   0.0204 122.1726 0002318  58.0999 126.7699  1.00271230 40464
INTELSAT 23 (IS-23)     
1 38867U 12057A   23249.44425017 -.00000296  00000+0  00000+0 0  9990
2 38867   0.0530 259.4441 0001559 278.1910 274.5768  1.00269024 39767
FM-6                    
1 39360U 13058A   23249.68334236 -.00000028  00000+0  00000+0 0  9992
2 39360   0.0113 137.0038 0000357 317.3285  21.0065  1.00269941 35895
INTELSAT 30 (IS-30)     
1 40271U 14062A   23249.43992277 -.00000162  00000+0  00000+0 0  9998
2 40271   0.0227 133.9759 0001768 306.0008 328.6055  1.00269607 32402
DIRECTV 14              
1 40333U 14078B   23250.04499389 -.00000137  00000+0  00000+0 0  9991
2 40333   0.0184 145.3188 0000284 255.3410 222.1649  1.00270470 32071
DIRECTV 15              
1 40663U 15026A   23249.63671553 -.00000113  00000+0  00000+0 0  9993
2 40663   0.0177 108.3479 0000334 224.3733 139.0890  1.00267419 30308
SKY MEXICO-1            
1 40664U 15026B   23250.04908396 -.00000246  00000+0  00000+0 0  9996
2 40664   0.0179 145.7048 0002095  32.8741 106.1906  1.00272154 30366
INTELSAT 34 (IS-34)     
1 40874U 15039A   23250.05378317 -.00000297  00000+0  00000+0 0  9994
2 40874   0.0448 307.7523 0001485  67.9602 294.0240  1.00270436 29449
INTELSAT 31 (IS-31)     
1 41581U 16035A   23249.50371785 -.00000162  00000+0  00000+0 0  9998
2 41581   0.0335 249.9653 0001424 326.4131 215.2332  1.00271070 26511
INTELSAT 36 (IS-36)     
1 41747U 16053A   23250.07841059 -.00000036  00000+0  00000+0 0  9992
2 41747   0.0183 108.8392 0002430 256.2043  77.5695  1.00270279 25777
INTELSAT 33E (IS-33E)   
1 41748U 16053B   23249.90084285  .00000038  00000+0  00000+0 0  9994
2 41748   0.0165 143.5485 0001768  20.4546 206.0303  1.00269695 26078
INTELSAT 32E (IS-32E)   
1 41945U 17007B   23249.69787514 -.00000280  00000+0  00000+0 0  9994
2 41945   0.0164 129.8419 0000134 124.4045 299.3227  1.00270116 24062
INTELSAT 35E (IS-35E)   
1 42818U 17041A   23249.48466113 -.00000249  00000+0  00000+0 0  9993
2 42818   0.0139 226.6453 0001596 318.3589 300.2933  1.00272309 22631
